[
    {
        "Altitude(m)": 555737.2520628973,
        "Argument of Periapsis(deg)": 0.033114955553567506,
        "Eccentricity": 0.0,
        "Inclination(deg)": 53.0,
        "Latitude(deg)": -8.48920772319927,
        "Longitude(deg)": -147.56531614919265,
        "Mean Anomaly(deg)": 190.45806433788795,
        "RAAN(deg)": 129.9507168426401,
        "Satellite Name": "Starlink Shell 1 580",
        "Satellite Number": 580,
        "Semi-Major Axis(m)": 6931778.249405717,
        "Time(s)": 950
    },
    {
        "Altitude(m)": 555848.8586321701,
        "Argument of Periapsis(deg)": 0.03346353403307874,
        "Eccentricity": 0.0,
        "Inclination(deg)": 53.0,
        "Latitude(deg)": -8.98948006316636,
        "Longitude(deg)": -147.22126210560947,
        "Mean Anomaly(deg)": 191.08489554144467,
        "RAAN(deg)": 129.9501980725626,
        "Satellite Name": "Starlink Shell 1 580",
        "Satellite Number": 580,
        "Semi-Major Axis(m)": 6931778.249405717,
        "Time(s)": 960
    },
    {
        "Altitude(m)": 555962.9057582323,
        "Argument of Periapsis(deg)": 0.03381211251258998,
        "Eccentricity": 0.0,
        "Inclination(deg)": 53.0,
        "Latitude(deg)": -9.489322728989048,
        "Longitude(deg)": -146.87616016131614,
        "Mean Anomaly(deg)": 191.71172674500136,
        "RAAN(deg)": 129.94967930248515,
        "Satellite Name": "Starlink Shell 1 580",
        "Satellite Number": 580,
        "Semi-Major Axis(m)": 6931778.249405717,
        "Time(s)": 970
    },
    {
        "Altitude(m)": 556079.3614383958,
        "Argument of Periapsis(deg)": 0.034160690992101214,
        "Eccentricity": 0.0,
        "Inclination(deg)": 53.0,
        "Latitude(deg)": -9.988710873391254,
        "Longitude(deg)": -146.52994860601058,
        "Mean Anomaly(deg)": 192.33855794855808,
        "RAAN(deg)": 129.94916053240766,
        "Satellite Name": "Starlink Shell 1 580",
        "Satellite Number": 580,
        "Semi-Major Axis(m)": 6931778.249405717,
        "Time(s)": 980
    },
    {
        "Altitude(m)": 556198.1924566248,
        "Argument of Periapsis(deg)": 0.034509269471612446,
        "Eccentricity": 0.0,
        "Inclination(deg)": 53.0,
        "Latitude(deg)": -10.487619420080383,
        "Longitude(deg)": -146.18256474772224,
        "Mean Anomaly(deg)": 192.96538915211482,
        "RAAN(deg)": 129.94864176233023,
        "Satellite Name": "Starlink Shell 1 580",
        "Satellite Number": 580,
        "Semi-Major Axis(m)": 6931778.249405717,
        "Time(s)": 990
    }
]